CCSDS_OMM_VERS = 2.0
CREATION_DATE  = 
ORIGINATOR     = 

OBJECT_NAME    = ATLAS CENTAUR R/B
OBJECT_ID      = 1972-065B
CENTER_NAME    = EARTH
REF_FRAME      = TEME
TIME_SYSTEM    = UTC
MEAN_ELEMENT_THEORY = SGP/SGP4

EPOCH          = 2025-12-07T02:50:07.417824
MEAN_MOTION    = 14.77384517
ECCENTRICITY   = .00345004
INCLINATION    = 35.0002
RA_OF_ASC_NODE = 128.1268
ARG_OF_PERICENTER = 310.7960
MEAN_ANOMALY   = 48.9750

EPHEMERIS_TYPE = 0
CLASSIFICATION_TYPE = U
NORAD_CAT_ID   = 6155
ELEMENT_SET_NO = 999
REV_AT_EPOCH   = 82756
BSTAR          = .32167747E-3
MEAN_MOTION_DOT = .2326E-4
MEAN_MOTION_DDOT = 0

CCSDS_OMM_VERS = 2.0
CREATION_DATE  = 
ORIGINATOR     = 

OBJECT_NAME    = SL-8 R/B
OBJECT_ID      = 1975-112B
CENTER_NAME    = EARTH
REF_FRAME      = TEME
TIME_SYSTEM    = UTC
MEAN_ELEMENT_THEORY = SGP/SGP4

EPOCH          = 2025-12-06T23:41:46.468032
MEAN_MOTION    = 14.38139541
ECCENTRICITY   = .0016511
INCLINATION    = 74.0596
RA_OF_ASC_NODE = 189.4389
ARG_OF_PERICENTER = 301.4254
MEAN_ANOMALY   = 58.5285

EPHEMERIS_TYPE = 0
CLASSIFICATION_TYPE = U
NORAD_CAT_ID   = 8459
ELEMENT_SET_NO = 999
REV_AT_EPOCH   = 61854
BSTAR          = .17259707E-3
MEAN_MOTION_DOT = .498E-5
MEAN_MOTION_DDOT = 0

CCSDS_OMM_VERS = 2.0
CREATION_DATE  = 
ORIGINATOR     = 

OBJECT_NAME    = SL-3 R/B
OBJECT_ID      = 1977-057B
CENTER_NAME    = EARTH
REF_FRAME      = TEME
TIME_SYSTEM    = UTC
MEAN_ELEMENT_THEORY = SGP/SGP4

EPOCH          = 2025-12-07T05:50:10.320864
MEAN_MOTION    = 15.42752542
ECCENTRICITY   = .00064017
INCLINATION    = 97.5684
RA_OF_ASC_NODE = 144.3581
ARG_OF_PERICENTER = 255.7548
MEAN_ANOMALY   = 104.2988

EPHEMERIS_TYPE = 0
CLASSIFICATION_TYPE = U
NORAD_CAT_ID   = 10114
ELEMENT_SET_NO = 999
REV_AT_EPOCH   = 65406
BSTAR          = .40837806E-3
MEAN_MOTION_DOT = .17789E-3
MEAN_MOTION_DDOT = 0

CCSDS_OMM_VERS = 2.0
CREATION_DATE  = 
ORIGINATOR     = 

OBJECT_NAME    = SEASAT 1
OBJECT_ID      = 1978-064A
CENTER_NAME    = EARTH
REF_FRAME      = TEME
TIME_SYSTEM    = UTC
MEAN_ELEMENT_THEORY = SGP/SGP4

EPOCH          = 2025-12-07T06:52:31.183392
MEAN_MOTION    = 14.46052555
ECCENTRICITY   = .00017453
INCLINATION    = 108.0106
RA_OF_ASC_NODE = 291.5934
ARG_OF_PERICENTER = 249.6425
MEAN_ANOMALY   = 110.4533

EPHEMERIS_TYPE = 0
CLASSIFICATION_TYPE = U
NORAD_CAT_ID   = 10967
ELEMENT_SET_NO = 999
REV_AT_EPOCH   = 49315
BSTAR          = .29485521E-3
MEAN_MOTION_DOT = .916E-5
MEAN_MOTION_DDOT = 0

CCSDS_OMM_VERS = 2.0
CREATION_DATE  = 
ORIGINATOR     = 

OBJECT_NAME    = SL-14 R/B
OBJECT_ID      = 1979-011B
CENTER_NAME    = EARTH
REF_FRAME      = TEME
TIME_SYSTEM    = UTC
MEAN_ELEMENT_THEORY = SGP/SGP4

EPOCH          = 2025-12-07T06:54:24.507360
MEAN_MOTION    = 14.91760010
ECCENTRICITY   = .00164057
INCLINATION    = 82.5239
RA_OF_ASC_NODE = 184.2149
ARG_OF_PERICENTER = 11.5516
MEAN_ANOMALY   = 348.6077

EPHEMERIS_TYPE = 0
CLASSIFICATION_TYPE = U
NORAD_CAT_ID   = 11267
ELEMENT_SET_NO = 999
REV_AT_EPOCH   = 51500
BSTAR          = .10223722E-3
MEAN_MOTION_DOT = .1057E-4
MEAN_MOTION_DDOT = 0

CCSDS_OMM_VERS = 2.0
CREATION_DATE  = 
ORIGINATOR     = 

OBJECT_NAME    = SL-8 R/B
OBJECT_ID      = 1979-089B
CENTER_NAME    = EARTH
REF_FRAME      = TEME
TIME_SYSTEM    = UTC
MEAN_ELEMENT_THEORY = SGP/SGP4

EPOCH          = 2025-12-07T05:13:46.966080
MEAN_MOTION    = 14.42277983
ECCENTRICITY   = .00144354
INCLINATION    = 74.0693
RA_OF_ASC_NODE = 262.1985
ARG_OF_PERICENTER = 98.9754
MEAN_ANOMALY   = 261.3037

EPHEMERIS_TYPE = 0
CLASSIFICATION_TYPE = U
NORAD_CAT_ID   = 11574
ELEMENT_SET_NO = 999
REV_AT_EPOCH   = 42277
BSTAR          = .19640642E-3
MEAN_MOTION_DOT = .623E-5
MEAN_MOTION_DDOT = 0

CCSDS_OMM_VERS = 2.0
CREATION_DATE  = 
ORIGINATOR     = 

OBJECT_NAME    = SL-14 R/B
OBJECT_ID      = 1980-005B
CENTER_NAME    = EARTH
REF_FRAME      = TEME
TIME_SYSTEM    = UTC
MEAN_ELEMENT_THEORY = SGP/SGP4

EPOCH          = 2025-12-07T04:09:12.379680
MEAN_MOTION    = 14.90781847
ECCENTRICITY   = .00172379
INCLINATION    = 82.5154
RA_OF_ASC_NODE = 34.9786
ARG_OF_PERICENTER = 110.3784
MEAN_ANOMALY   = 249.9289

EPHEMERIS_TYPE = 0
CLASSIFICATION_TYPE = U
NORAD_CAT_ID   = 11672
ELEMENT_SET_NO = 999
REV_AT_EPOCH   = 46270
BSTAR          = .10231288E-3
MEAN_MOTION_DOT = .1034E-4
MEAN_MOTION_DDOT = 0

CCSDS_OMM_VERS = 2.0
CREATION_DATE  = 
ORIGINATOR     = 

OBJECT_NAME    = SL-8 R/B
OBJECT_ID      = 1981-003B
CENTER_NAME    = EARTH
REF_FRAME      = TEME
TIME_SYSTEM    = UTC
MEAN_ELEMENT_THEORY = SGP/SGP4

EPOCH          = 2025-12-07T00:38:41.390880
MEAN_MOTION    = 15.06793962
ECCENTRICITY   = .02804203
INCLINATION    = 82.9280
RA_OF_ASC_NODE = 15.4614
ARG_OF_PERICENTER = 139.9026
MEAN_ANOMALY   = 222.3278

EPHEMERIS_TYPE = 0
CLASSIFICATION_TYPE = U
NORAD_CAT_ID   = 12139
ELEMENT_SET_NO = 999
REV_AT_EPOCH   = 30070
BSTAR          = .58572978E-3
MEAN_MOTION_DOT = .22017E-3
MEAN_MOTION_DDOT = 0

CCSDS_OMM_VERS = 2.0
CREATION_DATE  = 
ORIGINATOR     = 

OBJECT_NAME    = SL-3 R/B
OBJECT_ID      = 1981-046B
CENTER_NAME    = EARTH
REF_FRAME      = TEME
TIME_SYSTEM    = UTC
MEAN_ELEMENT_THEORY = SGP/SGP4

EPOCH          = 2025-12-07T07:11:37.866048
MEAN_MOTION    = 15.39445038
ECCENTRICITY   = .00192485
INCLINATION    = 81.2332
RA_OF_ASC_NODE = 40.4451
ARG_OF_PERICENTER = 343.6432
MEAN_ANOMALY   = 16.4185

EPHEMERIS_TYPE = 0
CLASSIFICATION_TYPE = U
NORAD_CAT_ID   = 12465
ELEMENT_SET_NO = 999
REV_AT_EPOCH   = 42420
BSTAR          = .40033024E-3
MEAN_MOTION_DOT = .15823E-3
MEAN_MOTION_DDOT = 0

CCSDS_OMM_VERS = 2.0
CREATION_DATE  = 
ORIGINATOR     = 

OBJECT_NAME    = SL-3 R/B
OBJECT_ID      = 1981-103B
CENTER_NAME    = EARTH
REF_FRAME      = TEME
TIME_SYSTEM    = UTC
MEAN_ELEMENT_THEORY = SGP/SGP4

EPOCH          = 2025-12-07T06:18:10.137312
MEAN_MOTION    = 15.20132654
ECCENTRICITY   = .00113571
INCLINATION    = 81.1589
RA_OF_ASC_NODE = 321.7678
ARG_OF_PERICENTER = 234.3799
MEAN_ANOMALY   = 125.6375

EPHEMERIS_TYPE = 0
CLASSIFICATION_TYPE = U
NORAD_CAT_ID   = 12904
ELEMENT_SET_NO = 999
REV_AT_EPOCH   = 95918
BSTAR          = .42423223E-3
MEAN_MOTION_DOT = .9213E-4
MEAN_MOTION_DDOT = 0

CCSDS_OMM_VERS = 2.0
CREATION_DATE  = 
ORIGINATOR     = 

OBJECT_NAME    = SL-3 R/B
OBJECT_ID      = 1982-013B
CENTER_NAME    = EARTH
REF_FRAME      = TEME
TIME_SYSTEM    = UTC
MEAN_ELEMENT_THEORY = SGP/SGP4

EPOCH          = 2025-12-07T05:58:38.884224
MEAN_MOTION    = 15.21009082
ECCENTRICITY   = .00237959
INCLINATION    = 81.1755
RA_OF_ASC_NODE = 269.0352
ARG_OF_PERICENTER = 128.3361
MEAN_ANOMALY   = 232.0014

EPHEMERIS_TYPE = 0
CLASSIFICATION_TYPE = U
NORAD_CAT_ID   = 13068
ELEMENT_SET_NO = 999
REV_AT_EPOCH   = 39029
BSTAR          = .30484888E-3
MEAN_MOTION_DOT = .6838E-4
MEAN_MOTION_DDOT = 0

CCSDS_OMM_VERS = 2.0
CREATION_DATE  = 
ORIGINATOR     = 

OBJECT_NAME    = SL-3 R/B
OBJECT_ID      = 1982-039B
CENTER_NAME    = EARTH
REF_FRAME      = TEME
TIME_SYSTEM    = UTC
MEAN_ELEMENT_THEORY = SGP/SGP4

EPOCH          = 2025-12-07T06:28:48.832896
MEAN_MOTION    = 15.09475856
ECCENTRICITY   = .00300135
INCLINATION    = 81.1728
RA_OF_ASC_NODE = 322.3888
ARG_OF_PERICENTER = 270.8969
MEAN_ANOMALY   = 88.8817

EPHEMERIS_TYPE = 0
CLASSIFICATION_TYPE = U
NORAD_CAT_ID   = 13154
ELEMENT_SET_NO = 999
REV_AT_EPOCH   = 36769
BSTAR          = .3160422E-3
MEAN_MOTION_DOT = .5136E-4
MEAN_MOTION_DDOT = 0

