ATLAS CENTAUR R/B       
1 06155U 72065B   25341.11814141  .00002326  00000+0  32168-3 0  9998
2 06155  35.0002 128.1268 0034500 310.7960  48.9750 14.77384517827563
SL-8 R/B                
1 08459U 75112B   25340.98734338  .00000498  00000+0  17260-3 0  9990
2 08459  74.0596 189.4389 0016511 301.4254  58.5285 14.38139541618540
SL-3 R/B                
1 10114U 77057B   25341.24317501  .00017789  00000+0  40838-3 0  9998
2 10114  97.5684 144.3581 0006401 255.7548 104.2988 15.42752542654061
SEASAT 1                
1 10967U 78064A   25341.28647203  .00000916  00000+0  29486-3 0  9992
2 10967 108.0106 291.5934 0001745 249.6425 110.4533 14.46052555493159
SL-14 R/B               
1 11267U 79011B   25341.28778365  .00001057  00000+0  10224-3 0  9990
2 11267  82.5239 184.2149 0016405  11.5516 348.6077 14.91760010515007
SL-8 R/B                
1 11574U 79089B   25341.21790470  .00000623  00000+0  19641-3 0  9990
2 11574  74.0693 262.1985 0014435  98.9754 261.3037 14.42277983422772
SL-14 R/B               
1 11672U 80005B   25341.17305995  .00001034  00000+0  10231-3 0  9991
2 11672  82.5154  34.9786 0017237 110.3784 249.9289 14.90781847462706
SL-8 R/B                
1 12139U 81003B   25341.02686795  .00022017  00000+0  58573-3 0  9998
2 12139  82.9280  15.4614 0280420 139.9026 222.3278 15.06793962300708
SL-3 R/B                
1 12465U 81046B   25341.29974382  .00015823  00000+0  40033-3 0  9997
2 12465  81.2332  40.4451 0019248 343.6432  16.4185 15.39445038424205
SL-3 R/B                
1 12904U 81103B   25341.26261733  .00009213  00000+0  42423-3 0  9996
2 12904  81.1589 321.7678 0011357 234.3799 125.6375 15.20132654959188
SL-3 R/B                
1 13068U 82013B   25341.24906116  .00006838  00000+0  30485-3 0  9993
2 13068  81.1755 269.0352 0023795 128.3361 232.0014 15.21009082390297
SL-3 R/B                
1 13154U 82039B   25341.27000964  .00005136  00000+0  31604-3 0  9990
2 13154  81.1728 322.3888 0030013 270.8969  88.8817 15.09475856367696
